ONEWEB-0291             
1 49081U 21075G   26007.78609791  .00000078  00000+0  16731-3 0  9994
2 49081  87.9098  37.7368 0001779 107.7890 252.3436 13.17650860212484
ONEWEB-0293             
1 49082U 21075H   26007.81141225  .00000034  00000+0  53121-4 0  9999
2 49082  87.9086  37.7495 0001650  97.2868 262.8451 13.17650301212516
ONEWEB-0294             
1 49083U 21075J   26007.77501906  .00000157  00000+0  40176-3 0  9992
2 49083  87.8927  22.5109 0001370  95.3897 264.7388 13.12445759213531
ONEWEB-0295             
1 49084U 21075K   26007.81055064  .00000050  00000+0  95235-4 0  9996
2 49084  87.9086  37.7541 0001863 105.7714 254.3623 13.17650041212474
ONEWEB-0296             
1 49085U 21075L   26007.75468120 -.00000343  00000+0 -99019-3 0  9991
2 49085  87.8923  22.5184 0001751 103.1332 256.9991 13.12444841213531
ONEWEB-0297             
1 49086U 21075M   26007.55647777  .00000310  00000+0  82681-3 0  9996
2 49086  87.8916  22.5879 0001789  94.4139 265.7194 13.12444122214113
ONEWEB-0298             
1 49087U 21075N   26007.81492077  .00000006  00000+0 -17304-4 0  9991
2 49087  87.9085  37.7500 0001953  93.5913 266.5442 13.17649319212500
ONEWEB-0299             
1 49088U 21075P   26007.81647170 -.00000005  00000+0 -45921-4 0  9994
2 49088  87.9096  37.7141 0001887  99.1876 260.9469 13.17650012212486
